API VERSION: 1.2
API SOURCE: NASA/JPL Horizons API

*******************************************************************************
 Revised: April 12, 2021                 Earth                              399
 
 GEOPHYSICAL PROPERTIES (revised May 9, 2022):
  Vol. Mean Radius (km)    = 6371.01+-0.02   Mass x10^24 (kg)= 5.97219+-0.0006
  Equ. radius, km          = 6378.137        Mass layers:
  Polar axis, km           = 6356.752          Atmos         = 5.1   x 10^18 kg
  Flattening               = 1/298.257223563   oceans        = 1.4   x 10^21 kg
  Density, g/cm^3          = 5.51              crust         = 2.6   x 10^22 kg
  J2 (IERS 2010)           = 0.00108262545     mantle        = 4.043 x 10^24 kg
  g_p, m/s^2  (polar)      = 9.8321863685      outer core    = 1.835 x 10^24 kg
  g_e, m/s^2  (equatorial) = 9.7803267715      inner core    = 9.675 x 10^22 kg
  g_o, m/s^2               = 9.82022         Fluid core rad  = 3480 km
  GM, km^3/s^2             = 398600.435436   Inner core rad  = 1215 km
  GM 1-sigma, km^3/s^2     =      0.0014     Escape velocity = 11.186 km/s
  Rot. Rate (rad/s)        = 0.00007292115   Surface area:
  Mean sidereal day, hr    = 23.9344695944     land          = 1.48 x 10^8 km
  Mean solar day 2000.0, s = 86400.002         sea           = 3.62 x 10^8 km
  Mean solar day 1820.0, s = 86400.0         Love no., k2    = 0.299
  Moment of inertia        = 0.3308          Atm. pressure   = 1.0 bar
  Mean surface temp (Ts), K= 287.6           Volume, km^3    = 1.08321 x 10^12
  Mean effect. temp (Te), K= 255             Magnetic moment = 0.61 gauss Rp^3
  Geometric albedo         = 0.367           Vis. mag. V(1,0)= -3.86
  Solar Constant (W/m^2)   = 1367.6 (mean), 1414 (perihelion), 1322 (aphelion)
 HELIOCENTRIC ORBIT CHARACTERISTICS:
  Obliquity to orbit, deg  = 23.4392911  Sidereal orb period  = 1.0000174 y
  Orbital speed, km/s      = 29.79       Sidereal orb period  = 365.25636 d
  Mean daily motion, deg/d = 0.9856474   Hill's sphere radius = 234.9       
*******************************************************************************


*******************************************************************************
Ephemeris / API_USER Thu Feb 19 13:06:11 2026 Pasadena, USA      / Horizons
*******************************************************************************
Target body name: Earth (399)                     {source: DE441}
Center body name: Sun (10)                        {source: DE441}
Center-site name: BODY CENTER
*******************************************************************************
Start time      : A.D. 2025-Mar-19 05:25:00.0000 TDB
Stop  time      : A.D. 2025-Mar-22 05:25:00.0000 TDB
Step-size       : 60 minutes
*******************************************************************************
Center geodetic : 0.0, 0.0, 0.0                   {E-lon(deg),Lat(deg),Alt(km)}
Center cylindric: 0.0, 0.0, 0.0                   {E-lon(deg),Dxy(km),Dz(km)}
Center radii    : 695700.0, 695700.0, 695700.0 km {Equator_a, b, pole_c}
Output units    : AU-D
Calendar mode   : Mixed Julian/Gregorian
Output type     : GEOMETRIC cartesian states
Output format   : 3 (position, velocity, LT, range, range-rate)
Reference frame : Ecliptic of J2000.0
*******************************************************************************
JDTDB
   X     Y     Z
   VX    VY    VZ
   LT    RG    RR
*******************************************************************************
$$SOE
2460756.475694444 = A.D. 2025-Mar-21 23:25:00.0000 TDB 
 X =-9.961128709425721E-01 Y =-2.157975618275269E-02 Z = 1.007070329715848E-05
 VX= 8.676601963387598E-05 VY=-1.726448677974297E-02 VZ= 9.853384972387709E-07
 LT= 5.754418024663176E-03 RG= 9.963465951343333E-01 RR= 2.871838752998640E-04
2460756.517361111 = A.D. 2025-Mar-22 00:25:00.0000 TDB 
 X =-9.961089970911443E-01 Y =-2.229910547559054E-02 Z = 1.011163290793642E-05
 VX= 9.917886220399560E-05 VY=-1.726427780107484E-02 VZ= 9.792815816338647E-07
 LT= 5.754487140160002E-03 RG= 9.963585621116436E-01 RR= 2.872309382066310E-04
2460756.559027778 = A.D. 2025-Mar-22 01:25:00.0000 TDB 
 X =-9.961046060363113E-01 Y =-2.301844587653362E-02 Z = 1.015230999535853E-05
 VX= 1.115917823162175E-04 VY=-1.726405996818323E-02 VZ= 9.732174461346289E-07
 LT= 5.754556266911987E-03 RG= 9.963705310377237E-01 RR= 2.872774159711059E-04
2460756.600694444 = A.D. 2025-Mar-22 02:25:00.0000 TDB 
 X =-9.960996977749371E-01 Y =-2.373777701657949E-02 Z = 1.019273426737383E-05
 VX= 1.240047754442090E-04 VY=-1.726383327739431E-02 VZ= 9.671465129705276E-07
 LT= 5.754625404778103E-03 RG= 9.963825018881562E-01 RR= 2.873233068253621E-04
2460756.642361111 = A.D. 2025-Mar-22 03:25:00.0000 TDB 
 X =-9.960942723040731E-01 Y =-2.445709852657206E-02 Z = 1.023290544959465E-05
 VX= 1.364178370440305E-04 VY=-1.726359772500631E-02 VZ= 9.610692072990338E-07
 LT= 5.754694553616898E-03 RG= 9.963944746384494E-01 RR= 2.873686090063316E-04
2460756.684027778 = A.D. 2025-Mar-22 04:25:00.0000 TDB 
 X =-9.960883296209624E-01 Y =-2.517641003720045E-02 Z = 1.027282328541651E-05
 VX= 1.488309625537170E-04 VY=-1.726335330728912E-02 VZ= 9.549859572282012E-07
 LT= 5.754763713286507E-03 RG= 9.964064492640395E-01 RR= 2.874133207560894E-04
2460756.725694444 = A.D. 2025-Mar-22 05:25:00.0000 TDB 
 X =-9.960818697230363E-01 Y =-2.589571117899772E-02 Z = 1.031248753612233E-05
 VX= 1.612441473928311E-04 VY=-1.726310002048401E-02 VZ= 9.488971938412865E-07
 LT= 5.754832883644623E-03 RG= 9.964184257402876E-01 RR= 2.874574403221668E-04
